IRIDIUM 166             
1 43570U 18061B   25333.82683093  .00000264  00000+0  87326-4 0  9991
2 43570  86.3957 140.0993 0002044  97.2551 262.8877 14.34214855384826
IRIDIUM 158             
1 43571U 18061C   25333.72534958  .00000036  00000+0  59417-5 0  9994
2 43571  86.3963 140.1514 0001813  89.4751 270.6653 14.34218189384779
IRIDIUM 165             
1 43572U 18061D   25333.82049176  .00000053  00000+0  11732-4 0  9995
2 43572  86.3966 140.1544 0002170  93.5047 266.6397 14.34217776384813
IRIDIUM 155             
1 43573U 18061E   25333.71266721  .00000116  00000+0  34255-4 0  9996
2 43573  86.3962 140.0786 0001899  96.6297 263.5115 14.34218054384763
IRIDIUM 154             
1 43574U 18061F   25333.83317661  .00000015  00000+0 -17329-5 0  9993
2 43574  86.3973 140.1519 0001968  91.5763 268.5658 14.34217473384839
IRIDIUM 163             
1 43575U 18061G   25333.74438435  .00000105  00000+0  30481-4 0  9999
2 43575  86.3964 140.1107 0001925  88.1312 272.0104 14.34216454384797
IRIDIUM 156             
1 43576U 18061H   25333.71900868  .00000052  00000+0  11607-4 0  9991
2 43576  86.3964 140.1282 0001953  98.8525 261.2892 14.34217951384783
IRIDIUM 164             
1 43577U 18061J   25333.69999706  .00000111  00000+0  32521-4 0  9992
2 43577  86.3965 140.1734 0002180  93.2804 266.8641 14.34217189384820
